47290,ONEWEB-0144,2020,109.72,148.0,+,87.9,Active,1,LEO,Russia,UK,Commercial,Communications,Soyuz,1 47290U 20100AJ  25294.36324904  .00000443  00000+0  11958-2 0  9994,2 47290  87.8960  38.0782 0002076 100.7010 259.4353 13.12447288233249,13.12447288,0.0002076,LEO
47291,ONEWEB-0145,2020,109.72,148.0,+,87.9,Active,1,LEO,Russia,UK,Commercial,Communications,Soyuz,1 47291U 20100AK  25294.56273755 -.00000200  00000+0 -59050-3 0  9993,2 47291  87.8971  38.0730 0001799 101.5122 258.6209 13.12444332233461,13.12444332,0.0001799,LEO
47292,ONEWEB-0146,2020,109.72,148.0,+,87.9,Active,1,LEO,Russia,UK,Commercial,Communications,Soyuz,1 47292U 20100AL  25294.55949174 -.00000277  00000+0 -80652-3 0  9994,2 47292  87.8969  38.0604 0001409 108.1303 251.9979 13.12444559233372,13.12444559,0.0001409,LEO
47293,ONEWEB-0147,2020,109.72,148.0,+,87.9,Active,1,LEO,Russia,UK,Commercial,Communications,Soyuz,1 47293U 20100AM  25294.52543249  .00000262  00000+0  69286-3 0  9997,2 47293  87.8968  38.0452 0001948 108.1427 251.9914 13.12440646233268,13.12440646,0.0001948,LEO
48042,ONEWEB-0115,2021,109.63,148.0,+,87.91,Active,1,LEO,Russia,UK,Commercial,Communications,Soyuz,1 48042U 21025A   25294.58747956  .00000370  00000+0  97935-3 0  9996,2 48042  87.9050   7.6294 0001804 100.6696 259.4636 13.13471648222276,13.13471648,0.0001804,LEO
48043,ONEWEB-0152,2021,109.63,148.0,+,87.9,Active,1,LEO,Russia,UK,Commercial,Communications,Soyuz,1 48043U 21025B   25294.60103078  .00000009  00000+0 -11596-4 0  9991,2 48043  87.9039   7.6389 0001742 103.8480 256.2843 13.13469826222232,13.13469826,0.0001742,LEO
48044,ONEWEB-0153,2021,109.63,148.0,+,87.9,Active,1,LEO,Russia,UK,Commercial,Communications,Soyuz,1 48044U 21025C   25294.57902941  .00000227  00000+0  58625-3 0  9998,2 48044  87.9045   7.6451 0001857  98.6813 261.4526 13.13469547222223,13.13469547,0.0001857,LEO
48045,ONEWEB-0154,2021,109.63,148.0,+,87.9,Active,1,LEO,Russia,UK,Commercial,Communications,Soyuz,1 48045U 21025D   25294.57562778  .00000337  00000+0  88769-3 0  9993,2 48045  87.9046   7.6420 0001851 103.4134 256.7202 13.13471924222181,13.13471924,0.0001851,LEO
